#dP2026  1 19  0  0  0.00000000     289   u+U IGS20 FIT  WHU
## 2402  86400.00000000   300.00000000 61059 0.0000000000000
+  113   G01G02G03G04G05G06G07G08G09G10G11G12G13G14G15G16G17
+        G18G19G21G22G23G24G25G26G27G28G29G30G31G32R02R03R04
+        R05R06R07R09R11R12R14R15R16R17R18R19R20R21R22E02E03
+        E04E05E06E07E08E09E10E11E12E13E15E19E21E23E25E26E27
+        E29E30E31E33E34E36C06C07C08C09C11C12C13C14C16C19C20
+        C21C22C23C24C25C26C27C28C29C30C32C33C34C35C36C37C38
+        C39C40C41C42C43C44C45C47C48C49C50  0  0  0  0  0  0
++         4  4  5  5  5  4  3  4  4  3  3  4  4  5  4  4  4
++         3  4  4  4  4  2  2  4  3  4  5  4  0  3  5  4  6
++         6  6  5  0  5  6  6  5  0  6  0  6  5  5  6  2  6
++         6  6  6  6  6  6  5  5  5  5  5  6  4  4  5  4  4
++         6  4  3  5  5  3  8  6  7  6  7  7  7  8  6  4  5
++         5  4  4  5  5  5  6  6  6  5  5  5  5  6  4  5  6
++         6  6  3  6  4  6  4  5  5  6  6  0  0  0  0  0  0
%c M  cc GPS ccc cccc cccc cccc cccc ccccc ccccc ccccc ccccc
%c cc cc ccc ccc cccc cccc cccc cccc ccccc ccccc ccccc ccccc
%f  1.2500000  1.025000000  0.00000000000  0.000000000000000
%f  0.0000000  0.000000000  0.00000000000  0.000000000000000
%i    0    0    0    0      0      0      0      0         0
%i    0    0    0    0      0      0      0      0         0
/* PCV:igs20_2401 OL/AL:FES2014b NONE     YN ORB:CoN CLK:CoN
*  2026  1 19  0  0  0.00000000
PG01  21775.857386  14176.553518   5671.861752    346.109978
PG02  19649.136675  17241.337974  -5697.853589     23.158250
PG03  12485.325818   9823.014660  21118.220061    598.295588
PG04  21223.124094   3626.950391  15696.224941     42.565657
PG05  -5745.269528 -23289.668840 -11532.616274   -223.957814
PG06   6023.675166 -13767.623528  21955.275609   -600.195996
PG07  20878.314216   1672.992295 -15969.458059   -133.593833
PG08  12430.519356  10971.261332 -21012.078709    506.236931
PG09  24958.952745  -5596.189261   7204.249163    773.927124
PG10 -10714.110484  20998.959153 -11621.500679   -579.926180
PG11  -8237.873917 -20461.058434  14903.880043   -465.865639
PG12 -10668.486064 -14688.868887  19096.731843   -603.139280
PG13  -4037.325837 -14452.147883 -22185.336636    692.836654
PG14  12841.255275 -18560.469141 -13687.193369    733.179332
PG15 -13698.034817  -9587.458721 -21193.283418    381.464335
PG16    686.537711  24983.540010  -8691.753033    194.167225
PG17  21008.042814 -13990.153346   9056.604451    -33.195282
PG18 -19582.848529     39.880277 -18013.171646   -443.926473
PG19  14656.721766 -15580.500863  15324.554606    689.757870
PG21   2162.483761 -26318.798894  -2721.644050    386.611617
PG22  10753.632083 -23130.656094  -7632.556221    -53.664588
PG23 -14543.197708   8284.454466 -20478.511493    604.786876
PG24 -21663.399555 -15557.290921  -2713.405969   -153.920386
PG25 -15365.296147   -272.714196  21267.838170    452.680167
PG26  -4339.019963  25533.623237   4582.440108   -309.927651
PG27   1116.114530  16062.997741 -21410.688536    -17.914440
PG28  -7317.838109  13408.588243  21723.835068   -605.773107
PG29 -25110.770170   1917.935976   8631.442023   -387.133658
PG30  14472.795338  -8085.665337 -20612.834673     95.833108
PG31   3191.717093  18916.718008  17951.531688   -168.328276
PG32 -18517.041920  15800.010944  10655.597269   -153.406840
PR02 -15481.345161    809.518633 -20182.246840     12.573737
PR03 -20424.107950  14386.450115  -4933.493058    137.112176
PR04 -13581.539119  18157.251881  11699.067092    332.867590
PR05    524.507797  12641.277439  22159.185620    162.248176
PR06  14841.553014     71.036620  20762.019210     22.931592
PR07  20556.611595 -14175.050165   5396.145130    117.523119
PR09  12391.003940  10872.582288 -19482.085252    302.881435
PR11   2328.126119 -21584.942202 -13370.864425     11.509564
PR12  -6997.550097 -24014.701456   5042.544811     64.239978
PR14  -9611.392081   7519.652590  22406.562560     31.141430
PR15  -1953.679843  22154.014141  12512.220144     60.028997
PR16   6977.263392  24019.103610  -5105.756027     44.196937
PR17 -19174.850551   1367.079977 -16777.665178    262.876267
PR18  -4760.684798   9533.152659 -23155.857368    242.911323
PR19  13030.181183  13871.270134 -16959.599743     30.042160
PR20  23548.801320   9832.850719   -778.352853    227.988456
PR21  20878.134755    608.559537  14627.495162   -273.461460
PR22   3486.729928 -10478.019790  23021.727619    106.462679
PE02  -9505.487474 -18563.576839  20998.486039     14.961576
PE03 -17241.192739 -11098.722476 -21358.379575      9.051624
PE04  28789.824849  -2052.656527   6560.644927    -42.441921
PE05   4277.521187 -17570.506953 -23431.286074      9.735860
PE06  28157.316719  -8652.309001  -2957.385017   -217.700557
PE07 -23471.879706  13736.525334  11703.131040    -36.150319
PE08 -28750.310621   1846.029802  -6827.038522    -72.386772
PE09  23507.393273 -13609.139594 -11747.658637   -175.190606
PE10  18680.451195  -1508.079336  22915.269997   -762.007452
PE11  11323.554745 -11467.118434  24825.614352   3656.592791
PE12  22439.834243   7301.434987  17887.757746    -16.196871
PE13 -11651.060804  10998.578143 -24877.648841    -43.175903
PE15 -22543.197053  -7968.911318 -17425.853063   -225.901236
PE19  16094.389168  11688.393599  21927.316653   2651.213627
PE21  -4362.533011  28607.106762  -6221.217538   -712.292558
PE23   9626.009161  18468.167563 -21048.387420    -18.878826
PE25   4764.589205 -28658.733691   5693.382595     25.404360
PE26   5947.158045  23203.423827 -17382.140607    198.791889
PE27 -15862.421189  21638.576566  12478.974190   -880.159924
PE29  -4049.612131  17703.710640  23369.957211   -166.919348
PE30 -17981.189433   2630.068193  23342.585613   -637.950319
PE31  17836.402647  -2010.164274 -23541.218304   -109.700581
PE33  19837.725285  21968.409342   -362.623873      1.589232
PE34 -19974.233278 -21845.512542    163.901883   -227.000995
PE36  -5706.776431 -23052.287963  17668.995947   -507.473439
PC06  -1498.049693  29679.437098  30189.519413     44.395952
PC07 -17819.159918  30779.667079 -22707.170918    471.292177
PC08 -10567.430952  40634.253361  -1842.827712   -635.902763
PC09   5896.916092  33986.726484  25328.544245    235.283533
PC11 -12196.977741 -15936.504027  19453.953925    835.620992
PC12   8885.814694 -13900.353443  22549.339201    203.544298
PC13  -5567.708453  41415.054536   4484.730246   -281.699118
PC14  -2672.779780 -18424.719232 -20762.157480   -310.981479
PC16  -2671.547025  28646.207337  31360.676238   -858.126423
PC19  10563.040318  11309.412280  23246.609255   -961.112195
PC20  -4372.101229  22185.885787  16383.971197   -952.783521
PC21  18569.319955 -20756.785351   1502.228552   -885.809923
PC22  20699.019203  -6906.956611  17375.367354    435.027643
PC23 -17895.735267  -4170.303879  20997.694233   -503.277432
PC24  -3004.851900 -26238.189022  -9081.772165     -7.338017
PC25 -16003.233130 -20746.285588   9616.958956    966.664693
PC26   9260.858082 -16530.467406 -20526.857915   -580.313350
PC27 -18989.260365   9883.125156 -17916.647514    587.125796
PC28 -27249.036443    -57.784620  -6000.786078    476.401445
PC29  20479.478384  12655.613118 -14122.662925    555.374812
PC30   1934.006724  16461.212185 -22464.082897    371.112119
PC32 -18438.025303  20902.488698  -1566.729304   -957.624606
PC33 -10626.714156 -11274.286008 -23206.652685   -947.523702
PC34  -1867.880247 -16486.810653  22420.963102    869.142785
PC35  27574.788951    141.965419   4395.751078   -233.972267
PC36  15420.673634  21262.278561  -9392.795177    308.408113
PC37 -10439.493333  15127.670937  20985.221108   -906.739131
PC38 -14213.051830  38026.373322 -11046.587494    272.714483
PC39  -8166.217887  24114.537773  33729.471660    -14.926535
PC40 -24280.375010  24543.952584 -24372.456285   -197.470187
PC41 -20375.925808   5865.512931 -18103.096258   -941.717110
PC42   6286.703142 -22887.909768 -14601.786083   -913.183213
PC43 -21496.716646 -12055.241068  13054.641584    133.320463
PC44  18683.577816 -10721.965469  17737.844043    901.353094
PC45  17863.150751   5074.916277 -20839.012923   -649.188944
PC47  13435.902977  15659.095055 -18790.066917   -445.203717
PC48   2272.308507  19138.006593  20192.271845    695.620956
PC49 -26603.096912  -7273.164016   4204.249608   -615.312615
PC50  13233.643804 -23626.705544  -6724.711317   -429.594028
EOF
